<?xml version="1.0" encoding="utf-8"?>
<ndm xmlns:xsi="http://www.w3.org/2001/XMLSchema-instance" xsi:noNamespaceSchemaLocation="https://sanaregistry.org/r/ndmxml_unqualified/ndmxml-3.0.0-master-3.0.xsd"><omm id="CCSDS_OMM_VERS" version="3.0"><header><COMMENT>GENERATED VIA SPACE-TRACK.ORG API</COMMENT><CREATION_DATE>2025-09-26T10:05:26</CREATION_DATE><ORIGINATOR>18 SPCS</ORIGINATOR></header><body><segment><metadata><OBJECT_NAME>CZ-4C DEB</OBJECT_NAME><OBJECT_ID>2007-055D</OBJECT_ID><CENTER_NAME>EARTH</CENTER_NAME><REF_FRAME>TEME</REF_FRAME><TIME_SYSTEM>UTC</TIME_SYSTEM><MEAN_ELEMENT_THEORY>SGP4</MEAN_ELEMENT_THEORY></metadata><data><meanElements><EPOCH>2025-09-25T23:11:31.738848</EPOCH><MEAN_MOTION>14.48036224</MEAN_MOTION><ECCENTRICITY>0.02051894</ECCENTRICITY><INCLINATION>97.7605</INCLINATION><RA_OF_ASC_NODE>98.3461</RA_OF_ASC_NODE><ARG_OF_PERICENTER>314.1801</ARG_OF_PERICENTER><MEAN_ANOMALY>44.2687</MEAN_ANOMALY></meanElements><tleParameters><EPHEMERIS_TYPE>0</EPHEMERIS_TYPE><CLASSIFICATION_TYPE>U</CLASSIFICATION_TYPE><NORAD_CAT_ID>35249</NORAD_CAT_ID><ELEMENT_SET_NO>999</ELEMENT_SET_NO><REV_AT_EPOCH>93204</REV_AT_EPOCH><BSTAR>0.00111785800000</BSTAR><MEAN_MOTION_DOT>0.00005375</MEAN_MOTION_DOT><MEAN_MOTION_DDOT>0.0000000000000</MEAN_MOTION_DDOT></tleParameters><userDefinedParameters><USER_DEFINED parameter="SEMIMAJOR_AXIS">7110.207</USER_DEFINED><USER_DEFINED parameter="PERIOD">99.445</USER_DEFINED><USER_DEFINED parameter="APOAPSIS">877.966</USER_DEFINED><USER_DEFINED parameter="PERIAPSIS">586.178</USER_DEFINED><USER_DEFINED parameter="OBJECT_TYPE">DEBRIS</USER_DEFINED><USER_DEFINED parameter="RCS_SIZE">SMALL</USER_DEFINED><USER_DEFINED parameter="COUNTRY_CODE">PRC</USER_DEFINED><USER_DEFINED parameter="LAUNCH_DATE">2007-11-11</USER_DEFINED><USER_DEFINED parameter="SITE">TSC</USER_DEFINED><USER_DEFINED parameter="DECAY_DATE"/><USER_DEFINED parameter="FILE">4824534</USER_DEFINED><USER_DEFINED parameter="GP_ID">298458999</USER_DEFINED></userDefinedParameters></data></segment></body></omm></ndm>
